{
  "type": "FeatureCollection",
  "metadata": {
    "state_code": "TN",
    "state_name": "Tamil Nadu",
    "synthetic": false,
    "classification": "published_authoritative_reference",
    "source": "National Water Data Portal village boundary dataset",
    "source_authority": "Survey of India (SOI)",
    "source_reference": "https://nwdp.nwic.gov.in/dataset/village-boundary",
    "download_reference": "https://nwdp.nwic.gov.in/dataset/9bad17f2-9d88-428d-98ad-831ef01ae2e4/resource/6ffc418d-317b-42e7-9191-26612a05f1ad/download/vb_soi_tn_geojson.zip",
    "license_reference": "https://nwdp.nwic.gov.in/copyright-policy",
    "version": "NWDP-SOI-2025-05-02",
    "source_updated_at": "2025-05-02",
    "source_crs": "EPSG:7755",
    "crs": "EPSG:4326"
  },
  "features": [
    {
      "type": "Feature",
      "id": "SOI-TN-632998",
      "geometry": {
        "type": "MultiPolygon",
        "coordinates": [
          [
            [
              [
                79.6046602,
                11.8900036
              ],
              [
                79.6077958,
                11.8890336
              ],
              [
                79.608307,
                11.8892559
              ],
              [
                79.60981,
                11.887071
              ],
              [
                79.6141127,
                11.8856662
              ],
              [
                79.6158447,
                11.8855785
              ],
              [
                79.6182329,
                11.886515
              ],
              [
                79.6211089,
                11.8866695
              ],
              [
                79.6242294,
                11.8862633
              ],
              [
                79.624939,
                11.8861745
              ],
              [
                79.6244202,
                11.8829883
              ],
              [
                79.6238327,
                11.8818287
              ],
              [
                79.6217497,
                11.8805698
              ],
              [
                79.6212448,
                11.8802542
              ],
              [
                79.6183549,
                11.8784478
              ],
              [
                79.6150969,
                11.8746408
              ],
              [
                79.6141051,
                11.8737806
              ],
              [
                79.6123048,
                11.8736786
              ],
              [
                79.6103439,
                11.8763374
              ],
              [
                79.6087343,
                11.8780797
              ],
              [
                79.6058122,
                11.8787292
              ],
              [
                79.6044618,
                11.8795541
              ],
              [
                79.6036835,
                11.8791593
              ],
              [
                79.603798,
                11.8784412
              ],
              [
                79.6023483,
                11.8782772
              ],
              [
                79.6003877,
                11.8782495
              ],
              [
                79.5993423,
                11.8785728
              ],
              [
                79.5977327,
                11.8786625
              ],
              [
                79.5924911,
                11.8806175
              ],
              [
                79.5858765,
                11.8822149
              ],
              [
                79.582077,
                11.8820489
              ],
              [
                79.5784072,
                11.8817696
              ],
              [
                79.5762177,
                11.8821348
              ],
              [
                79.5761871,
                11.8830513
              ],
              [
                79.5766907,
                11.8854278
              ],
              [
                79.5781631,
                11.8863519
              ],
              [
                79.5789259,
                11.8878302
              ],
              [
                79.5791016,
                11.8897499
              ],
              [
                79.5784911,
                11.8910955
              ],
              [
                79.5779802,
                11.8925318
              ],
              [
                79.57782,
                11.8944477
              ],
              [
                79.5782545,
                11.8951305
              ],
              [
                79.5789565,
                11.8988642
              ],
              [
                79.5789871,
                11.8993152
              ],
              [
                79.5828553,
                11.8993705
              ],
              [
                79.5870972,
                11.9001087
              ],
              [
                79.5922701,
                11.9002956
              ],
              [
                79.5956116,
                11.9002307
              ],
              [
                79.5963363,
                11.8993391
              ],
              [
                79.5972366,
                11.8959897
              ],
              [
                79.5983123,
                11.8945392
              ],
              [
                79.5994186,
                11.892072
              ],
              [
                79.6001436,
                11.8909543
              ],
              [
                79.6016466,
                11.8906377
              ],
              [
                79.6046602,
                11.8900036
              ]
            ]
          ]
        ]
      },
      "properties": {
        "district_code": "596",
        "district_name": "Villupuram",
        "block_code": "73",
        "block_name": "Kandamangalam",
        "village_code": "632998",
        "village_name": "Arpisampalaiyam",
        "tribal_groups": [],
        "socioeconomic": {
          "census_2011_households": 1109,
          "census_2011_population": 4700,
          "source_geographical_area": 768.0,
          "source_geographical_area_unit": "hectare"
        },
        "source_record_id": "SOI-TN-632998",
        "census_village_code": "632998"
      }
    }
  ]
}
